QIANFAN-41              
1 62242U 24232F   25210.92716054  .00000039  00000+0  42608-4 0  9998
2 62242  88.9931  54.9297 0012587 217.8997 142.1269 13.50959248 80917
QIANFAN-42              
1 62243U 24232G   25210.90868299  .00000137  00000+0  53055-4 0  9993
2 62243  88.9929  52.8977 0015540 160.3214 199.8581 14.24332776 82037
QIANFAN-43              
1 62244U 24232H   25210.84891113  .00000036  00000+0  36678-4 0  9998
2 62244  88.9936  54.9969 0013965 224.5675 135.4354 13.50952038 49510
QIANFAN-44              
1 62245U 24232J   25210.91072499  .00000024  00000+0  18721-4 0  9991
2 62245  88.9934  54.8035 0012261 220.3729 139.6513 13.50947645 80992
QIANFAN-45              
1 62246U 24232K   25210.95184940  .00000030  00000+0  28116-4 0  9997
2 62246  88.9938  54.9411 0012924 220.1796 139.8401 13.50957911 80922
QIANFAN-46              
1 62247U 24232L   25210.90247958  .00000043  00000+0  48021-4 0  9993
2 62247  88.9934  55.0208 0012857 226.4635 133.5449 13.50960059 80875
QIANFAN-47              
1 62248U 24232M   25210.90651912  .00000037  00000+0  39606-4 0  9995
2 62248  88.9930  54.9588 0013298 225.6595 134.3467 13.50959668 80904
QIANFAN-48              
1 62249U 24232N   25210.94361819  .00000037  00000+0  39581-4 0  9996
2 62249  88.9934  54.9514 0015505 229.1802 130.8005 13.50953397 80914
